start=new Date('2022-02-01T00:00:00.000Z').valueOf();
sats=[{"MEAN_MOTION_DOT":"0.00001472","INCLINATION":"53.0535","MEAN_ELEMENT_THEORY":"SGP4","EPOCH":"2022-01-31T20:52:13.831392","ECCENTRICITY":"0.00015800","MEAN_MOTION":"15.06396951","NORAD_CAT_ID":"47398","OBJECT_NAME":"STARLINK-2120","CENTER_NAME":"EARTH","COUNTRY_CODE":"US","OBJECT_TYPE":"PAYLOAD","OBJECT_ID":"2021-005BB","ARG_OF_PERICENTER":"72.9750","REF_FRAME":"TEME","TLE_LINE2":"2 47398  53.0535 275.5865 0001580  72.9750 287.1412 15.06396951 57705","SITE":"AFETR","MEAN_ANOMALY":"287.1412","FILE":"3288814","CLASSIFICATION_TYPE":"U","ELEMENT_SET_NO":"999","REV_AT_EPOCH":"5770","TLE_LINE1":"1 47398U 21005BB  22031.86960453  .00001472  00000-0  11772-3 0  9993","EPHEMERIS_TYPE":"0","PERIAPSIS":"546.129","LAUNCH_DATE":"2021-01-20","SEMIMAJOR_AXIS":"6925.358","APOAPSIS":"548.317","BSTAR":"0.00011772000000","MEAN_MOTION_DDOT":"0.0000000000000","RA_OF_ASC_NODE":"275.5865","RCS_SIZE":"LARGE","GP_ID":"195052628","DECAY_DATE":null,"PERIOD":"95.592","TIME_SYSTEM":"UTC"},{"MEAN_ANOMALY":"293.1344","ELEMENT_SET_NO":"999","FILE":"3288814","CLASSIFICATION_TYPE":"U","OBJECT_ID":"2021-005BC","ARG_OF_PERICENTER":"66.9831","TLE_LINE2":"2 47399  53.0552 285.5408 0001768  66.9831 293.1344 15.06403154 57569","SITE":"AFETR","REF_FRAME":"TEME","OBJECT_NAME":"STARLINK-2121","CENTER_NAME":"EARTH","NORAD_CAT_ID":"47399","COUNTRY_CODE":"US","OBJECT_TYPE":"PAYLOAD","MEAN_ELEMENT_THEORY":"SGP4","INCLINATION":"53.0552","EPOCH":"2022-01-31T21:10:45.696576","MEAN_MOTION_DOT":"0.00002767","MEAN_MOTION":"15.06403154","ECCENTRICITY":"0.00017680","DECAY_DATE":null,"GP_ID":"195053378","PERIOD":"95.592","TIME_SYSTEM":"UTC","RA_OF_ASC_NODE":"285.5408","MEAN_MOTION_DDOT":"0.0000000000000","RCS_SIZE":"LARGE","SEMIMAJOR_AXIS":"6925.339","BSTAR":"0.00020460000000","APOAPSIS":"548.428","TLE_LINE1":"1 47399U 21005BC  22031.88247334  .00002767  00000-0  20460-3 0  9994","EPHEMERIS_TYPE":"0","REV_AT_EPOCH":"5756","LAUNCH_DATE":"2021-01-20","PERIAPSIS":"545.979"},{"SEMIMAJOR_AXIS":"6925.336","APOAPSIS":"548.512","BSTAR":"0.00009350600000","REV_AT_EPOCH":"5785","EPHEMERIS_TYPE":"0","TLE_LINE1":"1 47400U 21005BD  22031.93224872  .00001112  00000-0  93506-4 0  9990","PERIAPSIS":"545.889","LAUNCH_DATE":"2021-01-20","DECAY_DATE":null,"GP_ID":"195053630","TIME_SYSTEM":"UTC","PERIOD":"95.592","MEAN_MOTION_DDOT":"0.0000000000000","RA_OF_ASC_NODE":"265.3026","RCS_SIZE":"LARGE","NORAD_CAT_ID":"47400","CENTER_NAME":"EARTH","OBJECT_NAME":"STARLINK-2122","OBJECT_TYPE":"PAYLOAD","COUNTRY_CODE":"US","MEAN_MOTION_DOT":"0.00001112","EPOCH":"2022-01-31T22:22:26.289408","INCLINATION":"53.0540","MEAN_ELEMENT_THEORY":"SGP4","ECCENTRICITY":"0.00018940","MEAN_MOTION":"15.06404256","MEAN_ANOMALY":"293.7175","CLASSIFICATION_TYPE":"U","FILE":"3288814","ELEMENT_SET_NO":"999","ARG_OF_PERICENTER":"66.4013","OBJECT_ID":"2021-005BD","REF_FRAME":"TEME","SITE":"AFETR","TLE_LINE2":"2 47400  53.0540 265.3026 0001894  66.4013 293.7175 15.06404256 57852"},{"TIME_SYSTEM":"UTC","PERIOD":"95.592","GP_ID":"195053878","DECAY_DATE":null,"RCS_SIZE":"LARGE","RA_OF_ASC_NODE":"275.5378","MEAN_MOTION_DDOT":"0.0000000000000","BSTAR":"0.00011457000000","APOAPSIS":"548.411","SEMIMAJOR_AXIS":"6925.331","LAUNCH_DATE":"2021-01-20","PERIAPSIS":"545.981","TLE_LINE1":"1 47401U 21005BE  22031.88433827  .00001426  00000-0  11457-3 0  9999","EPHEMERIS_TYPE":"0","REV_AT_EPOCH":"5771","ELEMENT_SET_NO":"999","FILE":"3288814","CLASSIFICATION_TYPE":"U","MEAN_ANOMALY":"294.3559","TLE_LINE2":"2 47401  53.0543 275.5378 0001755  65.7613 294.3559 15.06405762 57714","SITE":"AFETR","REF_FRAME":"TEME","OBJECT_ID":"2021-005BE","ARG_OF_PERICENTER":"65.7613","COUNTRY_CODE":"US","OBJECT_TYPE":"PAYLOAD","OBJECT_NAME":"STARLINK-2123","CENTER_NAME":"EARTH","NORAD_CAT_ID":"47401","MEAN_MOTION":"15.06405762","ECCENTRICITY":"0.00017550","INCLINATION":"53.0543","MEAN_ELEMENT_THEORY":"SGP4","EPOCH":"2022-01-31T21:13:26.826528","MEAN_MOTION_DOT":"0.00001426"},{"APOAPSIS":"548.417","BSTAR":"-0.00000814050000","SEMIMAJOR_AXIS":"6925.363","PERIAPSIS":"546.040","LAUNCH_DATE":"2021-01-20","REV_AT_EPOCH":"5771","TLE_LINE1":"1 47402U 21005BF  22031.90278120 -.00000403  00000-0 -81405-5 0  9994","EPHEMERIS_TYPE":"0","PERIOD":"95.592","TIME_SYSTEM":"UTC","GP_ID":"195053128","DECAY_DATE":null,"RCS_SIZE":"LARGE","MEAN_MOTION_DDOT":"0.0000000000000","RA_OF_ASC_NODE":"275.4462","COUNTRY_CODE":"US","OBJECT_TYPE":"PAYLOAD","NORAD_CAT_ID":"47402","OBJECT_NAME":"STARLINK-2124","CENTER_NAME":"EARTH","ECCENTRICITY":"0.00017160","MEAN_MOTION":"15.06395166","MEAN_MOTION_DOT":"-0.00000403","MEAN_ELEMENT_THEORY":"SGP4","INCLINATION":"53.0536","EPOCH":"2022-01-31T21:40:00.295680","FILE":"3288814","CLASSIFICATION_TYPE":"U","ELEMENT_SET_NO":"999","MEAN_ANOMALY":"298.2499","REF_FRAME":"TEME","TLE_LINE2":"2 47402  53.0536 275.4462 0001716  61.8663 298.2499 15.06395166 57711","SITE":"AFETR","OBJECT_ID":"2021-005BF","ARG_OF_PERICENTER":"61.8663"},{"LAUNCH_DATE":"2021-01-20","PERIAPSIS":"545.977","TLE_LINE1":"1 47403U 21005BG  22031.91014371 -.00000435  00000-0 -10281-4 0  9990","EPHEMERIS_TYPE":"0","REV_AT_EPOCH":"5771","BSTAR":"-0.00001028100000","APOAPSIS":"548.460","SEMIMAJOR_AXIS":"6925.353","RCS_SIZE":"LARGE","RA_OF_ASC_NODE":"275.4240","MEAN_MOTION_DDOT":"0.0000000000000","PERIOD":"95.592","TIME_SYSTEM":"UTC","GP_ID":"195052879","DECAY_DATE":null,"MEAN_MOTION":"15.06398476","ECCENTRICITY":"0.00017930","INCLINATION":"53.0532","MEAN_ELEMENT_THEORY":"SGP4","EPOCH":"2022-01-31T21:50:36.416544","MEAN_MOTION_DOT":"-0.00000435","COUNTRY_CODE":"US","OBJECT_TYPE":"PAYLOAD","OBJECT_NAME":"STARLINK-2127","CENTER_NAME":"EARTH","NORAD_CAT_ID":"47403","TLE_LINE2":"2 47403  53.0532 275.4240 0001793  74.0228 286.0959 15.06398476 57713","SITE":"AFETR","REF_FRAME":"TEME","OBJECT_ID":"2021-005BG","ARG_OF_PERICENTER":"74.0228","ELEMENT_SET_NO":"999","FILE":"3288814","CLASSIFICATION_TYPE":"U","MEAN_ANOMALY":"286.0959"},{"RCS_SIZE":"LARGE","RA_OF_ASC_NODE":"275.4395","MEAN_MOTION_DDOT":"0.0000000000000","TIME_SYSTEM":"UTC","PERIOD":"95.592","DECAY_DATE":null,"GP_ID":"195054130","LAUNCH_DATE":"2021-01-20","PERIAPSIS":"545.908","TLE_LINE1":"1 47404U 21005BH  22031.90646835 -.00000293  00000-0 -77153-6 0  9991","EPHEMERIS_TYPE":"0","REV_AT_EPOCH":"5771","BSTAR":"-0.00000077153000","APOAPSIS":"548.547","SEMIMAJOR_AXIS":"6925.362","TLE_LINE2":"2 47404  53.0540 275.4395 0001905  66.3284 293.7904 15.06395485 57717","SITE":"AFETR","REF_FRAME":"TEME","OBJECT_ID":"2021-005BH","ARG_OF_PERICENTER":"66.3284","ELEMENT_SET_NO":"999","FILE":"3288814","CLASSIFICATION_TYPE":"U","MEAN_ANOMALY":"293.7904","MEAN_MOTION":"15.06395485","ECCENTRICITY":"0.00019050","INCLINATION":"53.0540","MEAN_ELEMENT_THEORY":"SGP4","EPOCH":"2022-01-31T21:45:18.865440","MEAN_MOTION_DOT":"-0.00000293","COUNTRY_CODE":"US","OBJECT_TYPE":"PAYLOAD","OBJECT_NAME":"STARLINK-2128","CENTER_NAME":"EARTH","NORAD_CAT_ID":"47404"},{"EPOCH":"2022-01-31T21:20:05.553888","INCLINATION":"53.0505","MEAN_ELEMENT_THEORY":"SGP4","MEAN_MOTION_DOT":"0.00000169","MEAN_MOTION":"15.06394709","ECCENTRICITY":"0.00017930","CENTER_NAME":"EARTH","OBJECT_NAME":"STARLINK-2130","NORAD_CAT_ID":"47405","OBJECT_TYPE":"PAYLOAD","COUNTRY_CODE":"US","ARG_OF_PERICENTER":"65.9848","OBJECT_ID":"2021-005BJ","SITE":"AFETR","TLE_LINE2":"2 47405  53.0505 305.5107 0001793  65.9848 294.1329 15.06394709 57287","REF_FRAME":"TEME","MEAN_ANOMALY":"294.1329","ELEMENT_SET_NO":"999","CLASSIFICATION_TYPE":"U","FILE":"3288814","EPHEMERIS_TYPE":"0","TLE_LINE1":"1 47405U 21005BJ  22031.88895317  .00000169  00000-0  30276-4 0  9993","REV_AT_EPOCH":"5728","LAUNCH_DATE":"2021-01-20","PERIAPSIS":"545.988","SEMIMAJOR_AXIS":"6925.365","BSTAR":"0.00003027600000","APOAPSIS":"548.471","RA_OF_ASC_NODE":"305.5107","MEAN_MOTION_DDOT":"0.0000000000000","RCS_SIZE":"LARGE","GP_ID":"195054378","DECAY_DATE":null,"TIME_SYSTEM":"UTC","PERIOD":"95.592"},{"MEAN_MOTION_DDOT":"0.0000000000000","RA_OF_ASC_NODE":"275.3786","RCS_SIZE":"LARGE","DECAY_DATE":null,"GP_ID":"195052629","PERIOD":"95.593","TIME_SYSTEM":"UTC","REV_AT_EPOCH":"5771","EPHEMERIS_TYPE":"0","TLE_LINE1":"1 47406U 21005BK  22031.91754652  .00002917  00000-0  21468-3 0  9999","PERIAPSIS":"546.002","LAUNCH_DATE":"2021-01-20","SEMIMAJOR_AXIS":"6925.369","APOAPSIS":"548.466","BSTAR":"0.00021468000000","ARG_OF_PERICENTER":"74.7747","OBJECT_ID":"2021-005BK","REF_FRAME":"TEME","SITE":"AFETR","TLE_LINE2":"2 47406  53.0544 275.3786 0001779  74.7747 285.3438 15.06393465 57717","MEAN_ANOMALY":"285.3438","CLASSIFICATION_TYPE":"U","FILE":"3288814","ELEMENT_SET_NO":"999","MEAN_MOTION_DOT":"0.00002917","EPOCH":"2022-01-31T22:01:16.019328","INCLINATION":"53.0544","MEAN_ELEMENT_THEORY":"SGP4","ECCENTRICITY":"0.00017790","MEAN_MOTION":"15.06393465","NORAD_CAT_ID":"47406","CENTER_NAME":"EARTH","OBJECT_NAME":"STARLINK-2133","OBJECT_TYPE":"PAYLOAD","COUNTRY_CODE":"US"},{"OBJECT_ID":"2021-005BL","ARG_OF_PERICENTER":"63.8280","TLE_LINE2":"2 47407  53.0528 275.3586 0001862  63.8280 296.2900 15.06402411 57719","SITE":"AFETR","REF_FRAME":"TEME","MEAN_ANOMALY":"296.2900","ELEMENT_SET_NO":"999","FILE":"3288814","CLASSIFICATION_TYPE":"U","MEAN_ELEMENT_THEORY":"SGP4","INCLINATION":"53.0528","EPOCH":"2022-01-31T22:11:50.869248","MEAN_MOTION_DOT":"0.00003172","MEAN_MOTION":"15.06402411","ECCENTRICITY":"0.00018620","OBJECT_NAME":"STARLINK-2134","CENTER_NAME":"EARTH","NORAD_CAT_ID":"47407","COUNTRY_CODE":"US","OBJECT_TYPE":"PAYLOAD","RA_OF_ASC_NODE":"275.3586","MEAN_MOTION_DDOT":"0.0000000000000","RCS_SIZE":"LARGE","DECAY_DATE":null,"GP_ID":"195053379","TIME_SYSTEM":"UTC","PERIOD":"95.592","TLE_LINE1":"1 47407U 21005BL  22031.92489432  .00003172  00000-0  23174-3 0  9992","EPHEMERIS_TYPE":"0","REV_AT_EPOCH":"5771","LAUNCH_DATE":"2021-01-20","PERIAPSIS":"545.917","SEMIMAJOR_AXIS":"6925.341","BSTAR":"0.00023174000000","APOAPSIS":"548.496"}];
